STARLINK-31472          
1 59730U 24090A   26068.31878452  .00000131  00000+0  14293-4 0  9996
2 59730  43.0050 185.5732 0001429 180.4350 179.6500 15.27562133103384
HERMES-2                
1 63243U 25052AK  26068.92847372  .00009456  00000+0  34839-3 0  9999
2 63243  97.4004 324.4926 0006340  99.4160 260.7796 15.28021069 54859
